satname,norad_id,inclination_deg,eccentricity,mean_motion_rev_per_day,perigee_km,apogee_km,l1,l2
STARLINK-1493,45759,53.0544,0.0001552,15.06386355,546.1785576270122,548.3281988004092,1 45759U 20038AF  25339.10992525  .00000463  00000+0  49997-4 0  9992,2 45759  53.0544 281.2003 0001552  77.8326 282.2837 15.06386355302217
STARLINK-1494,45760,53.0539,0.0005606,15.54655446,399.35279834664834,406.95598225345384,1 45760U 20038AG  25339.15968916  .00063603  00000+0  94277-3 0  9991,2 45760  53.0539 254.6333 0005606 113.9537 246.2061 15.54655446302608
STARLINK-1502,45764,53.0557,0.0001603,15.06419296,546.0422952148019,548.2625430025673,1 45764U 20038AL  25339.01039678  .00009889  00000+0  68149-3 0  9999,2 45764  53.0557 281.6487 0001603 110.5328 249.5833 15.06419296302214
STARLINK-1470,45772,53.0514,0.0007268,15.20298416,499.93713696292616,509.94237733712,1 45772U 20038AU  25339.04054210  .00060728  00000+0  27505-2 0  9999,2 45772  53.0514 250.9210 0007268  48.1511 312.0103 15.20298416302640
STARLINK-1482,45773,53.0539,0.0001563,15.06356403,546.2627268221213,548.427632551492,1 45773U 20038AV  25339.17441183  .00017836  00000+0  12146-2 0  9990,2 45773  53.0539 260.9126 0001563  83.6197 276.4970 15.06356403302517
STARLINK-1496,45780,53.0543,0.0001151,15.06382127,546.469222726656,548.063450574753,1 45780U 20038BC  25339.07491310  .00019379  00000+0  13169-2 0  9994,2 45780  53.0543 261.3598 0001151 111.0251 249.0861 15.06382127302481
STARLINK-1497,45781,53.0367,0.0006641,15.64842471,369.20795900532084,378.1757380819563,1 45781U 20038BD  25339.33336806  .00101310  00000+0  10110-2 0  9992,2 45781  53.0367 192.3760 0006641  96.7353  90.4443 15.64842471  5943
STARLINK-1510,45784,53.0237,0.0002324,15.86174845,311.46367634559556,314.5737255153881,1 45784U 20038BG  25339.33336806  .00309876  00000+0  11815-2 0  9995,2 45784  53.0237 163.8683 0002324 212.3126 346.4035 15.86174845  5721
STARLINK-1513,45786,53.0546,0.0001362,15.06407965,546.2439173192606,548.130375616759,1 45786U 20038BJ  25339.17072509  .00002220  00000+0  16785-3 0  9991,2 45786  53.0546 260.9306 0001362  89.5621 270.5524 15.06407965302513
STARLINK-1522,46027,53.0525,0.0001369,15.06404688,546.2491116801339,548.1452681813371,1 46027U 20055A   25339.28408486  .00000718  00000+0  67062-4 0  9993,2 46027  53.0525 190.4204 0001369  86.6675 273.4470 15.06404688294653
STARLINK-1523,46028,53.0548,0.0001504,15.063998,546.1705983942356,548.2537434248452,1 46028U 20055B   25339.29882566 -.00000195  00000+0  57968-5 0  9995,2 46028  53.0548 190.3586 0001504  89.4859 270.6303 15.06399800294672
STARLINK-1526,46029,53.0551,0.0001611,15.06399899,546.0961937861966,548.327541191301,1 46029U 20055C   25339.29145590  .00000418  00000+0  46984-4 0  9997,2 46029  53.0551 190.3870 0001611  90.2779 269.8394 15.06399899294660
STARLINK-1555,46032,53.0535,0.0001402,15.06385692,546.2844702287284,548.2263502605601,1 46032U 20055F   25338.87863214 -.00000979  00000+0 -46826-4 0  9993,2 46032  53.0535 192.2404 0001402  71.4172 288.6969 15.06385692294603
STARLINK-1556,46033,53.0546,0.0001565,15.06398466,546.1324416462294,548.3000772164305,1 46033U 20055G   25338.86020359  .00001057  00000+0  89863-4 0  9992,2 46033  53.0546 192.3227 0001565  89.8427 270.2741 15.06398466294570
STARLINK-1557,46034,53.0543,0.0001413,15.06402772,546.2245116197619,548.1816127213306,1 46034U 20055H   25338.86388045  .00001849  00000+0  14295-3 0  9997,2 46034  53.0543 192.3073 0001413  82.7430 277.3719 15.06402772294574
STARLINK-1558,46035,53.0532,0.0001411,15.06394706,546.2506143623905,548.2049523042479,1 46035U 20055J   25338.87126825  .00002362  00000+0  17745-3 0  9999,2 46035  53.0532 192.2771 0001411  89.5829 270.5322 15.06394706294608
STARLINK-1560,46036,53.0531,0.0001421,15.06400132,546.2270614047238,548.1952453499134,1 46036U 20055K   25338.85652029  .00002596  00000+0  19311-3 0  9998,2 46036  53.0531 192.3434 0001421  89.7160 270.3992 15.06400132294608
STARLINK-1567,46038,53.054,0.0001613,15.06403389,546.084114113848,548.3182282078651,1 46038U 20055M   25338.86757119  .00000834  00000+0  74861-4 0  9992,2 46038  53.0540 192.2940 0001613  84.8909 275.2264 15.06403389294592
STARLINK-1569,46039,53.0541,0.0001438,15.06394604,546.2322284496804,548.2239634512753,1 46039U 20055N   25338.80860006  .00001369  00000+0  11077-3 0  9990,2 46039  53.0541 192.5568 0001438  91.5762 268.5391 15.06394604294584
STARLINK-1582,46043,53.0541,0.0001391,15.06405509,546.2313600623638,548.1579873339851,1 46043U 20055S   25338.81596655  .00001229  00000+0  10139-3 0  9995,2 46043  53.0541 192.5222 0001391  90.0761 270.0387 15.06405509294587
STARLINK-1591,46045,53.0534,0.0001421,15.06402357,546.2202430785928,548.1884250857393,1 46045U 20055U   25338.84176648  .00000468  00000+0  50333-4 0  9991,2 46045  53.0534 192.4086 0001421  91.8692 268.2460 15.06402357294572
STARLINK-1524,46047,53.0533,0.0001468,15.06406821,546.1740145351569,548.2072907339707,1 46047U 20055W   25339.25919686  .00000906  00000+0  79720-4 0  9994,2 46047  53.0533 180.5335 0001468 102.0436 258.0718 15.06406821294797
STARLINK-1527,46048,53.0537,0.0001422,15.06396018,546.2389759212601,548.2085485220359,1 46048U 20055X   25339.25551708  .00000364  00000+0  43311-4 0  9997,2 46048  53.0537 180.5487 0001422  90.0987 270.0165 15.06396018294771
STARLINK-1540,46051,53.0532,0.0001212,15.06396307,546.3835228574817,548.0622300915384,1 46051U 20055AA  25339.28867801 -.00001339  00000+0 -71013-4 0  9993,2 46051  53.0532 180.4003 0001212  78.1800 281.9325 15.06396307294816
STARLINK-1541,46052,53.0557,0.0001399,15.06393722,546.2619402157998,548.1996581260082,1 46052U 20055AB  25339.27394855 -.00000596  00000+0 -21136-4 0  9992,2 46052  53.0557 180.4654 0001399  87.5769 272.5380 15.06393722294770
STARLINK-1543,46053,53.053,0.0001471,15.0639919,546.1953213346769,548.2327596107825,1 46053U 20055AC  25338.87954822 -.00000684  00000+0 -27000-4 0  9998,2 46053  53.0530 182.2349 0001471  85.7924 274.3233 15.06399190294746
STARLINK-1548,46054,53.0539,0.0001369,15.06402462,546.2559330885679,548.1520914577277,1 46054U 20055AD  25339.28500885  .00002014  00000+0  15404-3 0  9992,2 46054  53.0539 180.4164 0001369  89.3110 270.8036 15.06402462294800
STARLINK-1554,46055,53.0537,0.000174,15.0640977,545.9766090183366,548.3866198961668,1 46055U 20055AE  25339.27025295  .00000210  00000+0  32982-4 0  9996,2 46055  53.0537 180.4827 0001740 102.8569 257.2615 15.06409770294808
